{
    "links": {
        "self": "http://www.neowsapp.com/rest/v1/neo/3632078?api_key=iIulBulltgU6a56xZRHN4H3l9WmuAYTsLGpBGhQ2"
    },
    "id": "3632078",
    "neo_reference_id": "3632078",
    "name": "(2013 EE68)",
    "designation": "2013 EE68",
    "nasa_jpl_url": "http://ssd.jpl.nasa.gov/sbdb.cgi?sstr=3632078",
    "absolute_magnitude_h": 24.1,
    "estimated_diameter": {
        "kilometers": {
            "estimated_diameter_min": 0.040230458,
            "estimated_diameter_max": 0.0899580388
        },
        "meters": {
            "estimated_diameter_min": 40.2304579834,
            "estimated_diameter_max": 89.9580388169
        },
        "miles": {
            "estimated_diameter_min": 0.0249980399,
            "estimated_diameter_max": 0.0558973165
        },
        "feet": {
            "estimated_diameter_min": 131.9896957704,
            "estimated_diameter_max": 295.1379320721
        }
    },
    "is_potentially_hazardous_asteroid": false,
    "close_approach_data": [
        {
            "close_approach_date": "1987-10-26",
            "close_approach_date_full": "1987-Oct-26 22:39",
            "epoch_date_close_approach": 562286340000,
            "relative_velocity": {
                "kilometers_per_second": "17.1985874401",
                "kilometers_per_hour": "61914.9147842131",
                "miles_per_hour": "38471.5202446684"
            },
            "miss_distance": {
                "astronomical": "0.1727414357",
                "lunar": "67.1964184873",
                "kilometers": "25841750.841461959",
                "miles": "16057319.3850906742"
            },
            "orbiting_body": "Earth"
        },
        {
            "close_approach_date": "2013-03-05",
            "close_approach_date_full": "2013-Mar-05 13:13",
            "epoch_date_close_approach": 1362489180000,
            "relative_velocity": {
                "kilometers_per_second": "12.2694586237",
                "kilometers_per_hour": "44170.0510454471",
                "miles_per_hour": "27445.5519954335"
            },
            "miss_distance": {
                "astronomical": "0.0229961395",
                "lunar": "8.9454982655",
                "kilometers": "3440173.487422865",
                "miles": "2137624.682110937"
            },
            "orbiting_body": "Earth"
        },
        {
            "close_approach_date": "2155-03-19",
            "close_approach_date_full": "2155-Mar-19 12:33",
            "epoch_date_close_approach": 5844745980000,
            "relative_velocity": {
                "kilometers_per_second": "16.583820618",
                "kilometers_per_hour": "59701.7542246783",
                "miles_per_hour": "37096.3483403286"
            },
            "miss_distance": {
                "astronomical": "0.1515192891",
                "lunar": "58.9410034599",
                "kilometers": "22666962.913274217",
                "miles": "14084597.6428375146"
            },
            "orbiting_body": "Earth"
        }
    ],
    "orbital_data": {
        "orbit_id": "14",
        "orbit_determination_date": "2017-04-06 08:46:29",
        "first_observation_date": "2013-03-13",
        "last_observation_date": "2013-04-03",
        "data_arc_in_days": 21,
        "observations_used": 60,
        "orbit_uncertainty": "8",
        "minimum_orbit_intersection": ".0219901",
        "jupiter_tisserand_invariant": "3.980",
        "epoch_osculation": "2456369.5",
        "eccentricity": ".5226845292955526",
        "semi_major_axis": "1.736594077371302",
        "inclination": "2.690585901990295",
        "ascending_node_longitude": "192.1999661392057",
        "orbital_period": "835.8837841844463",
        "perihelion_distance": ".8289032194630385",
        "perihelion_argument": "273.0466956650558",
        "aphelion_distance": "2.644284935279566",
        "perihelion_time": "2456315.201596544906",
        "mean_anomaly": "23.38533850480882",
        "mean_motion": ".4306818804377743",
        "equinox": "J2000",
        "orbit_class": {
            "orbit_class_type": "APO",
            "orbit_class_description": "Near-Earth asteroid orbits which cross the Earth’s orbit similar to that of 1862 Apollo",
            "orbit_class_range": "a (semi-major axis) > 1.0 AU; q (perihelion) < 1.017 AU"
        }
    },
    "is_sentry_object": false
}